IRIDIUM 26              
1 24903U 97043A   25273.87658417  .00000995  00000+0  32783-3 0  9994
2 24903  86.3919  66.1804 0002279  90.5050 269.6409 14.37229114471923
IRIDIUM 22              
1 24907U 97043E   25274.17273903  .00000994  00000+0  33553-3 0  9990
2 24907  86.3918  69.6888 0002154  87.4925 272.6518 14.36033656471988
DUMMY MASS 1            
1 24925U 97048A   25273.99992676  .00000992  00000+0  10743-3 0  9993
2 24925  86.3289  86.3729 0008511 120.6397 239.5668 14.87074818520855
DUMMY MASS 2            
1 24926U 97048B   25273.77781300  .00000989  00000+0  10773-3 0  9999
2 24926  86.3290  88.1046 0008959 131.7020 228.4973 14.86825621520594
IRIDIUM 29              
1 24944U 97051A   25274.01829159  .00000914  00000+0  30475-3 0  9995
2 24944  86.3898  99.4902 0001929  86.2650 273.8767 14.36553791468460
IRIDIUM 33              
1 24946U 97051C   25274.04716723  .00000695  00000+0  23744-3 0  9999
2 24946  86.3813  98.7474 0009972  92.0394 268.1945 14.34955189467921
IRIDIUM 28              
1 24948U 97051E   25274.06417488  .00000894  00000+0  29242-3 0  9999
2 24948  86.3902  96.9238 0002638  90.4655 269.6845 14.37460564469056
IRIDIUM 36              
1 24967U 97056C   25274.08043507  .00000717  00000+0  23204-3 0  9990
2 24967  86.3953 128.5452 0002313  82.3702 277.7758 14.37687015467431
